[{"OBJECT_NAME":"ONEWEB-0647","OBJECT_ID":"2023-043AK","EPOCH":"2025-10-21T18:16:31.259424","MEAN_MOTION":13.15547783,"ECCENTRICITY":0.000173,"INCLINATION":87.8966,"RA_OF_ASC_NODE":306.8177,"ARG_OF_PERICENTER":96.582,"MEAN_ANOMALY":263.5507,"EPHEMERIS_TYPE":0,"CLASSIFICATION_TYPE":"U","NORAD_CAT_ID":56079,"ELEMENT_SET_NO":999,"REV_AT_EPOCH":12507,"BSTAR":-0.00022979,"MEAN_MOTION_DOT":-7.4e-7,"MEAN_MOTION_DDOT":0},{"OBJECT_NAME":"ONEWEB-0651","OBJECT_ID":"2023-043AL","EPOCH":"2025-10-21T18:09:38.812608","MEAN_MOTION":13.15550784,"ECCENTRICITY":0.0001628,"INCLINATION":87.8968,"RA_OF_ASC_NODE":306.8109,"ARG_OF_PERICENTER":86.2692,"MEAN_ANOMALY":273.8624,"EPHEMERIS_TYPE":0,"CLASSIFICATION_TYPE":"U","NORAD_CAT_ID":56080,"ELEMENT_SET_NO":999,"REV_AT_EPOCH":12627,"BSTAR":-0.00023393,"MEAN_MOTION_DOT":-7.5e-7,"MEAN_MOTION_DDOT":0},{"OBJECT_NAME":"ONEWEB-0718","OBJECT_ID":"2023-043AM","EPOCH":"2025-10-21T18:02:50.455104","MEAN_MOTION":13.15549326,"ECCENTRICITY":0.0002382,"INCLINATION":87.8968,"RA_OF_ASC_NODE":306.7927,"ARG_OF_PERICENTER":87.0985,"MEAN_ANOMALY":273.0418,"EPHEMERIS_TYPE":0,"CLASSIFICATION_TYPE":"U","NORAD_CAT_ID":56081,"ELEMENT_SET_NO":999,"REV_AT_EPOCH":12508,"BSTAR":-3.7054e-5,"MEAN_MOTION_DOT":-1.0e-8,"MEAN_MOTION_DDOT":0},{"OBJECT_NAME":"ONEWEB-0561","OBJECT_ID":"2023-068A","EPOCH":"2025-10-21T15:21:05.277024","MEAN_MOTION":13.20770122,"ECCENTRICITY":0.0001403,"INCLINATION":87.9198,"RA_OF_ASC_NODE":322.0284,"ARG_OF_PERICENTER":101.4071,"MEAN_ANOMALY":258.722,"EPHEMERIS_TYPE":0,"CLASSIFICATION_TYPE":"U","NORAD_CAT_ID":56710,"ELEMENT_SET_NO":999,"REV_AT_EPOCH":11801,"BSTAR":0.00022732,"MEAN_MOTION_DOT":1.05e-6,"MEAN_MOTION_DDOT":0},{"OBJECT_NAME":"ONEWEB-0668","OBJECT_ID":"2023-068B","EPOCH":"2025-10-21T10:41:36.111840","MEAN_MOTION":13.16990206,"ECCENTRICITY":0.0001143,"INCLINATION":87.899,"RA_OF_ASC_NODE":276.3224,"ARG_OF_PERICENTER":108.6196,"MEAN_ANOMALY":251.5059,"EPHEMERIS_TYPE":0,"CLASSIFICATION_TYPE":"U","NORAD_CAT_ID":56711,"ELEMENT_SET_NO":999,"REV_AT_EPOCH":12036,"BSTAR":0.10764,"MEAN_MOTION_DOT":0.0004159,"MEAN_MOTION_DDOT":0},{"OBJECT_NAME":"ONEWEB-0676","OBJECT_ID":"2023-068C","EPOCH":"2025-10-21T19:21:11.842848","MEAN_MOTION":13.16596136,"ECCENTRICITY":0.0001721,"INCLINATION":87.8981,"RA_OF_ASC_NODE":276.2655,"ARG_OF_PERICENTER":87.0989,"MEAN_ANOMALY":273.0339,"EPHEMERIS_TYPE":0,"CLASSIFICATION_TYPE":"U","NORAD_CAT_ID":56712,"ELEMENT_SET_NO":999,"REV_AT_EPOCH":12033,"BSTAR":8.58e-5,"MEAN_MOTION_DOT":4.6e-7,"MEAN_MOTION_DDOT":0},{"OBJECT_NAME":"ONEWEB-0677","OBJECT_ID":"2023-068D","EPOCH":"2025-10-21T18:43:22.056960","MEAN_MOTION":13.20771377,"ECCENTRICITY":0.0001759,"INCLINATION":87.9207,"RA_OF_ASC_NODE":321.9788,"ARG_OF_PERICENTER":90.153,"MEAN_ANOMALY":269.9805,"EPHEMERIS_TYPE":0,"CLASSIFICATION_TYPE":"U","NORAD_CAT_ID":56713,"ELEMENT_SET_NO":999,"REV_AT_EPOCH":11833,"BSTAR":0.00017436,"MEAN_MOTION_DOT":8.4e-7,"MEAN_MOTION_DDOT":0},{"OBJECT_NAME":"ONEWEB-0678","OBJECT_ID":"2023-068E","EPOCH":"2025-10-21T19:06:43.345728","MEAN_MOTION":13.15548468,"ECCENTRICITY":0.0001815,"INCLINATION":87.8969,"RA_OF_ASC_NODE":306.7576,"ARG_OF_PERICENTER":103.1418,"MEAN_ANOMALY":256.9915,"EPHEMERIS_TYPE":0,"CLASSIFICATION_TYPE":"U","NORAD_CAT_ID":56714,"ELEMENT_SET_NO":999,"REV_AT_EPOCH":11794,"BSTAR":0.00049411,"MEAN_MOTION_DOT":1.99e-6,"MEAN_MOTION_DDOT":0},{"OBJECT_NAME":"ONEWEB-0679","OBJECT_ID":"2023-068F","EPOCH":"2025-10-21T18:22:06.525120","MEAN_MOTION":13.16594057,"ECCENTRICITY":0.0001835,"INCLINATION":87.8974,"RA_OF_ASC_NODE":276.2603,"ARG_OF_PERICENTER":70.2952,"MEAN_ANOMALY":289.8377,"EPHEMERIS_TYPE":0,"CLASSIFICATION_TYPE":"U","NORAD_CAT_ID":56715,"ELEMENT_SET_NO":999,"REV_AT_EPOCH":12035,"BSTAR":-2.8976e-5,"MEAN_MOTION_DOT":2.0e-8,"MEAN_MOTION_DDOT":0},{"OBJECT_NAME":"ONEWEB-0680","OBJECT_ID":"2023-068G","EPOCH":"2025-10-21T19:18:22.174848","MEAN_MOTION":13.2188173,"ECCENTRICITY":0.000225,"INCLINATION":87.9169,"RA_OF_ASC_NODE":291.5214,"ARG_OF_PERICENTER":74.7427,"MEAN_ANOMALY":285.3956,"EPHEMERIS_TYPE":0,"CLASSIFICATION_TYPE":"U","NORAD_CAT_ID":56716,"ELEMENT_SET_NO":999,"REV_AT_EPOCH":11960,"BSTAR":-1.4673e-6,"MEAN_MOTION_DOT":1.2e-7,"MEAN_MOTION_DDOT":0},{"OBJECT_NAME":"ONEWEB-0681","OBJECT_ID":"2023-068H","EPOCH":"2025-10-21T18:48:37.252800","MEAN_MOTION":13.21745526,"ECCENTRICITY":8.57e-5,"INCLINATION":87.9165,"RA_OF_ASC_NODE":291.5439,"ARG_OF_PERICENTER":73.7364,"MEAN_ANOMALY":286.3864,"EPHEMERIS_TYPE":0,"CLASSIFICATION_TYPE":"U","NORAD_CAT_ID":56717,"ELEMENT_SET_NO":999,"REV_AT_EPOCH":11959,"BSTAR":4.838e-5,"MEAN_MOTION_DOT":3.3e-7,"MEAN_MOTION_DDOT":0},{"OBJECT_NAME":"ONEWEB-0682","OBJECT_ID":"2023-068J","EPOCH":"2025-10-21T19:44:21.687072","MEAN_MOTION":13.1554679,"ECCENTRICITY":0.0002044,"INCLINATION":87.8965,"RA_OF_ASC_NODE":306.7699,"ARG_OF_PERICENTER":78.5285,"MEAN_ANOMALY":281.6075,"EPHEMERIS_TYPE":0,"CLASSIFICATION_TYPE":"U","NORAD_CAT_ID":56718,"ELEMENT_SET_NO":999,"REV_AT_EPOCH":11811,"BSTAR":-0.00023196,"MEAN_MOTION_DOT":-7.4e-7,"MEAN_MOTION_DDOT":0},{"OBJECT_NAME":"ONEWEB-0683","OBJECT_ID":"2023-068K","EPOCH":"2025-10-21T20:15:10.552896","MEAN_MOTION":13.1554768,"ECCENTRICITY":0.0002002,"INCLINATION":87.8967,"RA_OF_ASC_NODE":306.7458,"ARG_OF_PERICENTER":85.9598,"MEAN_ANOMALY":274.1761,"EPHEMERIS_TYPE":0,"CLASSIFICATION_TYPE":"U","NORAD_CAT_ID":56719,"ELEMENT_SET_NO":999,"REV_AT_EPOCH":11808,"BSTAR":-0.00010224,"MEAN_MOTION_DOT":-2.6e-7,"MEAN_MOTION_DDOT":0},{"OBJECT_NAME":"ONEWEB-0684","OBJECT_ID":"2023-068L","EPOCH":"2025-10-21T18:37:03.585216","MEAN_MOTION":13.15547877,"ECCENTRICITY":0.0002781,"INCLINATION":87.8967,"RA_OF_ASC_NODE":306.755,"ARG_OF_PERICENTER":120.0502,"MEAN_ANOMALY":240.0904,"EPHEMERIS_TYPE":0,"CLASSIFICATION_TYPE":"U","NORAD_CAT_ID":56720,"ELEMENT_SET_NO":999,"REV_AT_EPOCH":11790,"BSTAR":8.5273e-5,"MEAN_MOTION_DOT":4.5e-7,"MEAN_MOTION_DDOT":0},{"OBJECT_NAME":"ONEWEB-0686","OBJECT_ID":"2023-068M","EPOCH":"2025-10-21T18:21:54.550080","MEAN_MOTION":13.16594763,"ECCENTRICITY":0.0002219,"INCLINATION":87.8971,"RA_OF_ASC_NODE":276.2932,"ARG_OF_PERICENTER":85.885,"MEAN_ANOMALY":274.2534,"EPHEMERIS_TYPE":0,"CLASSIFICATION_TYPE":"U","NORAD_CAT_ID":56721,"ELEMENT_SET_NO":999,"REV_AT_EPOCH":12034,"BSTAR":2.0504e-5,"MEAN_MOTION_DOT":2.1e-7,"MEAN_MOTION_DDOT":0},{"OBJECT_NAME":"ONEWEB-0694","OBJECT_ID":"2023-068N","EPOCH":"2025-10-21T10:16:16.826592","MEAN_MOTION":13.16600175,"ECCENTRICITY":0.00021683,"INCLINATION":87.8991,"RA_OF_ASC_NODE":276.2973,"ARG_OF_PERICENTER":76.0245,"MEAN_ANOMALY":284.1127,"EPHEMERIS_TYPE":0,"CLASSIFICATION_TYPE":"U","NORAD_CAT_ID":56722,"ELEMENT_SET_NO":999,"REV_AT_EPOCH":12035,"BSTAR":-5.0384302e-5,"MEAN_MOTION_DOT":-6.0e-8,"MEAN_MOTION_DDOT":0},{"OBJECT_NAME":"ONEWEB-0696","OBJECT_ID":"2023-068P","EPOCH":"2025-10-21T19:24:57.777984","MEAN_MOTION":13.15549093,"ECCENTRICITY":0.0001811,"INCLINATION":87.8965,"RA_OF_ASC_NODE":306.8045,"ARG_OF_PERICENTER":102.415,"MEAN_ANOMALY":257.7183,"EPHEMERIS_TYPE":0,"CLASSIFICATION_TYPE":"U","NORAD_CAT_ID":56723,"ELEMENT_SET_NO":999,"REV_AT_EPOCH":11802,"BSTAR":0.00021472,"MEAN_MOTION_DOT":9.4e-7,"MEAN_MOTION_DDOT":0}]
