ONEWEB-0647             
1 56079U 23043AK  25294.76147291 -.00000074  00000+0 -22979-3 0  9992
2 56079  87.8966 306.8177 0001730  96.5820 263.5507 13.15547783125073
ONEWEB-0651             
1 56080U 23043AL  25294.75669922 -.00000075  00000+0 -23393-3 0  9995
2 56080  87.8968 306.8109 0001628  86.2692 273.8624 13.15550784126273
ONEWEB-0718             
1 56081U 23043AM  25294.75197286 -.00000001  00000+0 -37054-4 0  9994
2 56081  87.8968 306.7927 0002382  87.0985 273.0418 13.15549326125084
ONEWEB-0561             
1 56710U 23068A   25294.63964441  .00000105  00000+0  22732-3 0  9991
2 56710  87.9198 322.0284 0001403 101.4071 258.7220 13.20770122118018
ONEWEB-0668             
1 56711U 23068B   25294.44555685  .00041590  00000+0  10764+0 0  9998
2 56711  87.8990 276.3224 0001143 108.6196 251.5059 13.16990206120365
ONEWEB-0676             
1 56712U 23068C   25294.80638707  .00000046  00000+0  85800-4 0  9995
2 56712  87.8981 276.2655 0001721  87.0989 273.0339 13.16596136120336
ONEWEB-0677             
1 56713U 23068D   25294.78011640  .00000084  00000+0  17436-3 0  9995
2 56713  87.9207 321.9788 0001759  90.1530 269.9805 13.20771377118338
ONEWEB-0678             
1 56714U 23068E   25294.79633502  .00000199  00000+0  49411-3 0  9999
2 56714  87.8969 306.7576 0001815 103.1418 256.9915 13.15548468117943
ONEWEB-0679             
1 56715U 23068F   25294.76535330  .00000002  00000+0 -28976-4 0  9995
2 56715  87.8974 276.2603 0001835  70.2952 289.8377 13.16594057120353
ONEWEB-0680             
1 56716U 23068G   25294.80442332  .00000012  00000+0 -14673-5 0  9991
2 56716  87.9169 291.5214 0002250  74.7427 285.3956 13.21881730119600
ONEWEB-0681             
1 56717U 23068H   25294.78376450  .00000033  00000+0  48380-4 0  9999
2 56717  87.9165 291.5439 0000857  73.7364 286.3864 13.21745526119595
ONEWEB-0682             
1 56718U 23068J   25294.82247323 -.00000074  00000+0 -23196-3 0  9995
2 56718  87.8965 306.7699 0002044  78.5285 281.6075 13.15546790118119
ONEWEB-0683             
1 56719U 23068K   25294.84387214 -.00000026  00000+0 -10224-3 0  9997
2 56719  87.8967 306.7458 0002002  85.9598 274.1761 13.15547680118082
ONEWEB-0684             
1 56720U 23068L   25294.77573594  .00000045  00000+0  85273-4 0  9995
2 56720  87.8967 306.7550 0002781 120.0502 240.0904 13.15547877117906
ONEWEB-0686             
1 56721U 23068M   25294.76521470  .00000021  00000+0  20504-4 0  9991
2 56721  87.8971 276.2932 0002219  85.8850 274.2534 13.16594763120344
ONEWEB-0694             
1 56722U 23068N   25294.42797253 -.00000006  00000+0 -50384-4 0  9993
2 56722  87.8991 276.2973 0002168  76.0245 284.1127 13.16600175120359
ONEWEB-0696             
1 56723U 23068P   25294.80900206  .00000094  00000+0  21472-3 0  9990
2 56723  87.8965 306.8045 0001811 102.4150 257.7183 13.15549093118023
